{
  "type": "FeatureCollection",
  "features": [
    {
      "type": "Feature",
      "properties": {
        "norad_id": 37420,
        "name": "FENGYUN 1C DEB",
        "group": "fengyun-1c-debris",
        "lat": -80.06693530975112,
        "lon": 37.3736373218746,
        "alt_km": 851.0652797037128,
        "timestamp": "2025-12-10T07:43:55.068204+00:00",
        "meta_object_name": "FENGYUN 1C DEB",
        "meta_object_id": "1999-025EGN",
        "meta_epoch": "2025-12-08T04:40:09.470784",
        "meta_mean_motion": 13.9973792,
        "meta_eccentricity": 0.00707955,
        "meta_inclination": 98.8619,
        "meta_ra_of_asc_node": 332.3305,
        "meta_arg_of_pericenter": 288.8881,
        "meta_mean_anomaly": 70.4618,
        "meta_ephemeris_type": 0,
        "meta_classification_type": "U",
        "meta_norad_cat_id": 37420,
        "meta_element_set_no": 999,
        "meta_rev_at_epoch": 59701,
        "meta_bstar": 0.00086941135,
        "meta_mean_motion_dot": 1.257e-05,
        "meta_mean_motion_ddot": 0,
        "tle_line1": "1 37420U 99025EGN 25342.19455406  .00001257  00000+0  86941-3 0  9996",
        "tle_line2": "2 37420  98.8619 332.3305 0070795 288.8881  70.4618 13.99737920597017"
      },
      "geometry": {
        "type": "Point",
        "coordinates": [
          37.3736373218746,
          -80.06693530975112
        ]
      }
    },
    {
      "type": "Feature",
      "properties": {
        "norad_id": 37421,
        "name": "FENGYUN 1C DEB",
        "group": "fengyun-1c-debris",
        "lat": 44.11403370676161,
        "lon": -69.37425970946929,
        "alt_km": 887.0851733639438,
        "timestamp": "2025-12-10T07:43:55.068214+00:00",
        "meta_object_name": "FENGYUN 1C DEB",
        "meta_object_id": "1999-025EGP",
        "meta_epoch": "2025-12-08T14:18:59.473152",
        "meta_mean_motion": 13.40522268,
        "meta_eccentricity": 0.0408878,
        "meta_inclination": 98.8881,
        "meta_ra_of_asc_node": 297.8318,
        "meta_arg_of_pericenter": 95.9007,
        "meta_mean_anomaly": 268.8872,
        "meta_ephemeris_type": 0,
        "meta_classification_type": "U",
        "meta_norad_cat_id": 37421,
        "meta_element_set_no": 999,
        "meta_rev_at_epoch": 60890,
        "meta_bstar": 0.0009747,
        "meta_mean_motion_dot": 8.4e-06,
        "meta_mean_motion_ddot": 0,
        "tle_line1": "1 37421U 99025EGP 25342.59652168  .00000840  00000+0  97470-3 0  9991",
        "tle_line2": "2 37421  98.8881 297.8318 0408878  95.9007 268.8872 13.40522268608901"
      },
      "geometry": {
        "type": "Point",
        "coordinates": [
          -69.37425970946929,
          44.11403370676161
        ]
      }
    },
    {
      "type": "Feature",
      "properties": {
        "norad_id": 37423,
        "name": "FENGYUN 1C DEB",
        "group": "fengyun-1c-debris",
        "lat": -52.98872457635605,
        "lon": -157.20901504573246,
        "alt_km": 860.9532238739621,
        "timestamp": "2025-12-10T07:43:55.068224+00:00",
        "meta_object_name": "FENGYUN 1C DEB",
        "meta_object_id": "1999-025EGR",
        "meta_epoch": "2025-12-09T10:09:17.471232",
        "meta_mean_motion": 14.07540897,
        "meta_eccentricity": 0.00494259,
        "meta_inclination": 98.7863,
        "meta_ra_of_asc_node": 33.7554,
        "meta_arg_of_pericenter": 168.7001,
        "meta_mean_anomaly": 191.529,
        "meta_ephemeris_type": 0,
        "meta_classification_type": "U",
        "meta_norad_cat_id": 37423,
        "meta_element_set_no": 999,
        "meta_rev_at_epoch": 63563,
        "meta_bstar": 0.0013631012,
        "meta_mean_motion_dot": 2.282e-05,
        "meta_mean_motion_ddot": 0,
        "tle_line1": "1 37423U 99025EGR 25343.42311888  .00002282  00000+0  13631-2 0  9995",
        "tle_line2": "2 37423  98.7863  33.7554 0049425 168.7001 191.5290 14.07540897635631"
      },
      "geometry": {
        "type": "Point",
        "coordinates": [
          -157.20901504573246,
          -52.98872457635605
        ]
      }
    },
    {
      "type": "Feature",
      "properties": {
        "norad_id": 37424,
        "name": "FENGYUN 1C DEB",
        "group": "fengyun-1c-debris",
        "lat": 18.922956784224993,
        "lon": 110.78257202037432,
        "alt_km": 827.1592070190718,
        "timestamp": "2025-12-10T07:43:55.068234+00:00",
        "meta_object_name": "FENGYUN 1C DEB",
        "meta_object_id": "1999-025EGS",
        "meta_epoch": "2025-11-26T15:03:16.540128",
        "meta_mean_motion": 14.17748147,
        "meta_eccentricity": 0.02143557,
        "meta_inclination": 97.1976,
        "meta_ra_of_asc_node": 102.1461,
        "meta_arg_of_pericenter": 331.0381,
        "meta_mean_anomaly": 27.9039,
        "meta_ephemeris_type": 0,
        "meta_classification_type": "U",
        "meta_norad_cat_id": 37424,
        "meta_element_set_no": 999,
        "meta_rev_at_epoch": 68345,
        "meta_bstar": 0.00085242664,
        "meta_mean_motion_dot": 2.145e-05,
        "meta_mean_motion_ddot": 0,
        "tle_line1": "1 37424U 99025EGS 25330.62727477  .00002145  00000+0  85243-3 0  9996",
        "tle_line2": "2 37424  97.1976 102.1461 0214355 331.0381  27.9039 14.17748147683455"
      },
      "geometry": {
        "type": "Point",
        "coordinates": [
          110.78257202037432,
          18.922956784224993
        ]
      }
    },
    {
      "type": "Feature",
      "properties": {
        "norad_id": 37427,
        "name": "FENGYUN 1C DEB",
        "group": "fengyun-1c-debris",
        "lat": 78.85735749698583,
        "lon": 75.53997748968905,
        "alt_km": 659.9900868644954,
        "timestamp": "2025-12-10T07:43:55.068245+00:00",
        "meta_object_name": "FENGYUN 1C DEB",
        "meta_object_id": "1999-025EGV",
        "meta_epoch": "2025-11-25T03:26:10.747680",
        "meta_mean_motion": 14.97768919,
        "meta_eccentricity": 0.01887185,
        "meta_inclination": 98.6232,
        "meta_ra_of_asc_node": 109.1733,
        "meta_arg_of_pericenter": 355.7363,
        "meta_mean_anomaly": 4.2239,
        "meta_ephemeris_type": 0,
        "meta_classification_type": "U",
        "meta_norad_cat_id": 37427,
        "meta_element_set_no": 999,
        "meta_rev_at_epoch": 60059,
        "meta_bstar": 0.00046451943,
        "meta_mean_motion_dot": 7.8e-05,
        "meta_mean_motion_ddot": 0,
        "tle_line1": "1 37427U 99025EGV 25329.14317995  .00007800  00000+0  46452-3 0  9996",
        "tle_line2": "2 37427  98.6232 109.1733 0188718 355.7363   4.2239 14.97768919600595"
      },
      "geometry": {
        "type": "Point",
        "coordinates": [
          75.53997748968905,
          78.85735749698583
        ]
      }
    },
    {
      "type": "Feature",
      "properties": {
        "norad_id": 37428,
        "name": "FENGYUN 1C DEB",
        "group": "fengyun-1c-debris",
        "lat": 69.1312821852751,
        "lon": 48.08165639811788,
        "alt_km": 729.2205091110764,
        "timestamp": "2025-12-10T07:43:55.068254+00:00",
        "meta_object_name": "FENGYUN 1C DEB",
        "meta_object_id": "1999-025EGW",
        "meta_epoch": "2025-12-08T08:21:22.529088",
        "meta_mean_motion": 14.34566274,
        "meta_eccentricity": 0.00566929,
        "meta_inclination": 97.7218,
        "meta_ra_of_asc_node": 205.4682,
        "meta_arg_of_pericenter": 112.0181,
        "meta_mean_anomaly": 248.7043,
        "meta_ephemeris_type": 0,
        "meta_classification_type": "U",
        "meta_norad_cat_id": 37428,
        "meta_element_set_no": 999,
        "meta_rev_at_epoch": 63373,
        "meta_bstar": 0.0023264608,
        "meta_mean_motion_dot": 6.657e-05,
        "meta_mean_motion_ddot": 0,
        "tle_line1": "1 37428U 99025EGW 25342.34817742  .00006657  00000+0  23265-2 0  9994",
        "tle_line2": "2 37428  97.7218 205.4682 0056692 112.0181 248.7043 14.34566274633731"
      },
      "geometry": {
        "type": "Point",
        "coordinates": [
          48.08165639811788,
          69.1312821852751
        ]
      }
    },
    {
      "type": "Feature",
      "properties": {
        "norad_id": 37430,
        "name": "FENGYUN 1C DEB",
        "group": "fengyun-1c-debris",
        "lat": -50.798513077359644,
        "lon": -132.49044178203,
        "alt_km": 814.1725686802156,
        "timestamp": "2025-12-10T07:43:55.068264+00:00",
        "meta_object_name": "FENGYUN 1C DEB",
        "meta_object_id": "1999-025EGY",
        "meta_epoch": "2025-12-05T03:58:16.719456",
        "meta_mean_motion": 14.28846273,
        "meta_eccentricity": 0.001883,
        "meta_inclination": 98.7668,
        "meta_ra_of_asc_node": 53.2332,
        "meta_arg_of_pericenter": 93.5332,
        "meta_mean_anomaly": 266.8003,
        "meta_ephemeris_type": 0,
        "meta_classification_type": "U",
        "meta_norad_cat_id": 37430,
        "meta_element_set_no": 999,
        "meta_rev_at_epoch": 61593,
        "meta_bstar": 0.0038447795,
        "meta_mean_motion_dot": 9.683e-05,
        "meta_mean_motion_ddot": 0,
        "tle_line1": "1 37430U 99025EGY 25339.16547129  .00009683  00000+0  38448-2 0  9993",
        "tle_line2": "2 37430  98.7668  53.2332 0018830  93.5332 266.8003 14.28846273615930"
      },
      "geometry": {
        "type": "Point",
        "coordinates": [
          -132.49044178203,
          -50.798513077359644
        ]
      }
    }
  ]
}